BEIJING 1               
1 28890U 05043A   24276.43940985  .00002183  00000+0  43830-3 0  9996
2 28890  98.2136  38.6070 0015958  72.3401 287.9541 14.62610956  9574
HUANJING 1A (HJ-1A)     
1 33320U 08041A   24276.43651627  .00008494  00000+0  11033-2 0  9993
2 33320  97.6345 278.2240 0020800  26.0766 334.1490 14.80797223866220
HUANJING 1B (HJ-1B)     
1 33321U 08041B   24276.42594662  .00005916  00000+0  76234-3 0  9999
2 33321  97.6280 282.7117 0039599  66.6180 293.9190 14.80851827866249
YAOGAN-4                
1 33446U 08061A   24276.37803883  .00006861  00000+0  90053-3 0  9996
2 33446  97.8826 206.2768 0013359 301.7882  58.2029 14.80530382853414
DEIMOS-1                
1 35681U 09041A   24276.48912122  .00003821  00000+0  59225-3 0  9996
2 35681  97.6842  92.7184 0002509  65.1360 295.0110 14.73707598815114
UK-DMC 2                
1 35683U 09041C   24276.42357656  .00006060  00000+0  93115-3 0  9991
2 35683  97.7971  59.7842 0001415  96.3427 263.7943 14.73886001814807
DMC3-FM1                
1 40715U 15032A   24276.44993795  .00003958  00000+0  48017-3 0  9996
2 40715  97.7311 152.1501 0004454 313.9922  46.0925 14.84113272497489
DMC3-FM2                
1 40716U 15032B   24276.47221889  .00004247  00000+0  51457-3 0  9992
2 40716  97.7364 153.3131 0006412 315.5642  44.5057 14.84123726497487
DMC3-FM3                
1 40717U 15032C   24276.43600191  .00004169  00000+0  50634-3 0  9995
2 40717  97.7413 154.6042 0007807 310.9859  49.0680 14.84030743497484
